zip,city,state
00801,ST THOMAS,VI
00802,ST THOMAS,VI
00803,ST THOMAS,VI
00804,ST THOMAS,VI
00805,ST THOMAS,VI
00820,CHRISTIANSTED,VI
00821,CHRISTIANSTED,VI
00822,CHRISTIANSTED,VI
00823,CHRISTIANSTED,VI
00824,CHRISTIANSTED,VI
00830,ST JOHN,VI
00831,ST JOHN,VI
00840,FREDERIKSTED,VI
00841,FREDERIKSTED,VI
00850,KINGSHILL,VI
00851,KINGSHILL,VI
09001,APO,AE
09002,APO,AE
09003,APO,AE
09004,APO,AE
09005,APO,AE
09006,APO,AE
09008,APO,AE
09009,APO,AE
09010,APO,AE
09011,APO,AE
09012,APO,AE
09013,APO,AE
09014,APO,AE
09015,APO,AE
09016,APO,AE
09017,APO,AE
09018,APO,AE
09020,APO,AE
09021,APO,AE
09028,APO,AE
09033,APO,AE
09034,APO,AE
09044,APO,AE
09046,APO,AE
09049,APO,AE
09053,APO,AE
09054,APO,AE
09055,APO,AE
09059,APO,AE
09060,APO,AE
09067,APO,AE
09068,APO,AE
09069,APO,AE
09075,APO,AE
09079,APO,AE
09090,APO,AE
09094,APO,AE
09095,APO,AE
09096,APO,AE
09101,APO,AE
09103,APO,AE
09104,APO,AE
09107,APO,AE
09112,APO,AE
09113,APO,AE
09114,APO,AE
09115,APO,AE
09116,APO,AE
09123,APO,AE
09125,APO,AE
09126,APO,AE
09128,APO,AE
09131,APO,AE
09136,APO,AE
09138,APO,AE
09139,APO,AE
09140,APO,AE
09142,APO,AE
09143,APO,AE
09154,APO,AE
09160,DPO,AE
09161,APO,AE
09170,DPO,AE
09171,DPO,AE
09172,APO,AE
09173,APO,AE
09174,DPO,AE
09175,DPO,AE
09176,DPO,AE
09177,APO,AE
09178,DPO,AE
09180,APO,AE
09186,APO,AE
09203,DPO,AE
09204,FPO,AE
09211,APO,AE
09213,DPO,AE
09214,APO,AE
09216,FPO,AE
09226,APO,AE
09227,APO,AE
09240,APO,AE
09241,FPO,AE
09242,APO,AE
09245,APO,AE
09250,APO,AE
09261,APO,AE
09263,APO,AE
09264,APO,AE
09265,DPO,AE
09266,FPO,AE
09276,DPO,AE
09277,DPO,AE
09278,DPO,AE
09279,DPO,AE
09283,DPO,AE
09285,DPO,AE
09289,DPO,AE
09290,DPO,AE
09301,DPO,AE
09302,APO,AE
09304,APO,AE
09305,APO,AE
09306,APO,AE
09307,APO,AE
09308,APO,AE
09309,APO,AE
09310,DPO,AE
09311,DPO,AE
09312,DPO,AE
09313,FPO,AE
09314,APO,AE
09315,APO,AE
09316,APO,AE
09317,APO,AE
09318,APO,AE
09319,APO,AE
09320,APO,AE
09321,APO,AE
09322,APO,AE
09323,APO,AE
09328,APO,AE
09330,APO,AE
09333,APO,AE
09337,APO,AE
09340,APO,AE
09343,APO,AE
09347,APO,AE
09348,APO,AE
09351,APO,AE
09352,APO,AE
09354,APO,AE
09355,APO,AE
09356,APO,AE
09357,APO,AE
09360,APO,AE
09363,FPO,AE
09364,APO,AE
09365,APO,AE
09366,APO,AE
09368,APO,AE
09372,FPO,AE
09373,FPO,AE
09378,APO,AE
09381,APO,AE
09382,APO,AE
09397,APO,AE
09401,APO,AE
09403,APO,AE
09421,APO,AE
09447,APO,AE
09454,APO,AE
09456,APO,AE
09459,APO,AE
09461,APO,AE
09463,APO,AE
09464,APO,AE
09467,DPO,AE
09468,APO,AE
09469,APO,AE
09470,APO,AE
09487,DPO,AE
09488,DPO,AE
09489,DPO,AE
09494,APO,AE
09496,APO,AE
09497,APO,AE
09498,DPO,AE
09501,FPO,AE
09502,FPO,AE
09503,FPO,AE
09504,FPO,AE
09505,FPO,AE
09506,FPO,AE
09507,FPO,AE
09508,FPO,AE
09509,FPO,AE
09510,FPO,AE
09511,FPO,AE
09512,FPO,AE
09513,FPO,AE
09514,FPO,AE
09517,FPO,AE
09520,FPO,AE
09522,APO,AE
09523,FPO,AE
09524,FPO,AE
09532,FPO,AE
09533,APO,AE
09534,FPO,AE
09541,APO,AE
09542,APO,AE
09543,FPO,AE
09544,APO,AE
09545,APO,AE
09550,FPO,AE
09554,FPO,AE
09556,FPO,AE
09564,FPO,AE
09565,FPO,AE
09566,FPO,AE
09567,FPO,AE
09568,FPO,AE
09569,FPO,AE
09570,FPO,AE
09573,FPO,AE
09574,FPO,AE
09575,FPO,AE
09576,FPO,AE
09577,FPO,AE
09578,FPO,AE
09579,FPO,AE
09581,FPO,AE
09582,FPO,AE
09583,FPO,AE
09586,FPO,AE
09587,FPO,AE
09588,FPO,AE
09589,FPO,AE
09590,FPO,AE
09591,FPO,AE
09592,FPO,AE
09593,FPO,AE
09594,FPO,AE
09595,FPO,AE
09596,FPO,AE
09599,FPO,AE
09600,APO,AE
09601,DPO,AE
09602,APO,AE
09603,APO,AE
09604,APO,AE
09605,APO,AE
09606,APO,AE
09607,FPO,AE
09608,FPO,AE
09609,FPO,AE
09610,APO,AE
09613,APO,AE
09614,DPO,AE
09616,FPO,AE
09617,FPO,AE
09618,FPO,AE
09620,FPO,AE
09621,FPO,AE
09622,FPO,AE
09623,FPO,AE
09624,DPO,AE
09625,FPO,AE
09626,FPO,AE
09627,FPO,AE
09630,APO,AE
09631,FPO,AE
09633,APO,AE
09634,APO,AE
09635,APO,AE
09636,FPO,AE
09641,FPO,AE
09642,DPO,AE
09643,APO,AE
09645,FPO,AE
09647,APO,AE
09648,FPO,AE
09649,FPO,AE
09665,FPO,AE
09701,DPO,AE
09702,APO,AE
09703,APO,AE
09704,APO,AE
09705,APO,AE
09706,APO,AE
09707,DPO,AE
09708,APO,AE
09709,DPO,AE
09710,DPO,AE
09711,APO,AE
09712,FPO,AE
09714,APO,AE
09715,DPO,AE
09716,DPO,AE
09717,APO,AE
09718,DPO,AE
09719,APO,AE
09720,APO,AE
09722,APO,AE
09723,DPO,AE
09724,APO,AE
09725,APO,AE
09726,DPO,AE
09727,DPO,AE
09728,DPO,AE
09729,FPO,AE
09730,DPO,AE
09731,DPO,AE
09732,APO,AE
09733,FPO,AE
09734,DPO,AE
09735,APO,AE
09736,DPO,AE
09737,DPO,AE
09738,DPO,AE
09739,DPO,AE
09741,DPO,AE
09742,DPO,AE
09743,APO,AE
09744,DPO,AE
09745,APO,AE
09747,FPO,AE
09748,DPO,AE
09749,APO,AE
09750,DPO,AE
09751,APO,AE
09752,APO,AE
09753,APO,AE
09754,APO,AE
09755,APO,AE
09756,APO,AE
09758,APO,AE
09759,DPO,AE
09760,APO,AE
09761,FPO,AE
09762,DPO,AE
09769,DPO,AE
09777,DPO,AE
09780,APO,AE
09789,APO,AE
09800,APO,AE
09801,APO,AE
09802,DPO,AE
09803,APO,AE
09804,APO,AE
09805,FPO,AE
09806,DPO,AE
09807,DPO,AE
09808,DPO,AE
09809,DPO,AE
09810,APO,AE
09811,DPO,AE
09812,DPO,AE
09813,DPO,AE
09814,DPO,AE
09815,APO,AE
09816,DPO,AE
09817,DPO,AE
09818,APO,AE
09820,DPO,AE
09821,APO,AE
09822,APO,AE
09823,DPO,AE
09824,APO,AE
09825,DPO,AE
09826,DPO,AE
09827,DPO,AE
09828,DPO,AE
09829,APO,AE
09830,DPO,AE
09831,DPO,AE
09832,APO,AE
09833,APO,AE
09834,FPO,AE
09835,FPO,AE
09836,DPO,AE
09837,FPO,AE
09838,FPO,AE
09839,APO,AE
09841,FPO,AE
09842,DPO,AE
09843,APO,AE
09844,DPO,AE
09845,DPO,AE
09846,DPO,AE
09847,DPO,AE
09848,APO,AE
09851,APO,AE
09852,APO,AE
09853,APO,AE
09854,DPO,AE
09855,APO,AE
09856,DPO,AE
09857,DPO,AE
09858,APO,AE
09859,FPO,AE
09860,DPO,AE
09861,APO,AE
09862,DPO,AE
09863,APO,AE
09864,DPO,AE
09865,FPO,AE
09867,DPO,AE
09868,APO,AE
09869,DPO,AE
09870,DPO,AE
09873,DPO,AE
09874,DPO,AE
09875,DPO,AE
09876,APO,AE
09877,APO,AE
09880,DPO,AE
09890,APO,AE
09892,DPO,AE
09895,DPO,AE
09898,APO,AE
09901,APO,AE
09902,FPO,AE
09903,APO,AE
09904,APO,AE
09906,APO,AE
09907,APO,AE
09908,APO,AE
09909,APO,AE
09910,APO,AE
09974,DPO,AE
09975,DPO,AE
09976,DPO,AE
09977,DPO,AE
34001,DPO,AA
34002,DPO,AA
34004,DPO,AA
34007,FPO,AA
34008,DPO,AA
34011,DPO,AA
34020,DPO,AA
34021,DPO,AA
34022,DPO,AA
34023,DPO,AA
34024,DPO,AA
34025,DPO,AA
34030,DPO,AA
34031,DPO,AA
34032,DPO,AA
34033,DPO,AA
34034,DPO,AA
34035,DPO,AA
34036,DPO,AA
34037,DPO,AA
34038,APO,AA
34039,DPO,AA
34041,DPO,AA
34042,APO,AA
34044,APO,AA
34050,APO,AA
34051,APO,AA
34052,APO,AA
34053,APO,AA
34054,APO,AA
34055,DPO,AA
34058,FPO,AA
34060,DPO,AA
34066,DPO,AA
34067,DPO,AA
34068,DPO,AA
34069,DPO,AA
34078,APO,AA
34080,FPO,AA
34081,FPO,AA
34082,FPO,AA
34083,FPO,AA
34084,FPO,AA
34085,FPO,AA
34086,FPO,AA
34087,FPO,AA
34088,FPO,AA
34089,FPO,AA
34090,FPO,AA
34091,FPO,AA
34092,FPO,AA
34093,FPO,AA
34094,FPO,AA
34095,FPO,AA
34096,FPO,AA
34098,FPO,AA
34099,FPO,AA
96201,APO,AP
96202,APO,AP
96203,APO,AP
96204,APO,AP
96205,APO,AP
96206,APO,AP
96207,APO,AP
96208,APO,AP
96209,DPO,AP
96210,DPO,AP
96212,FPO,AP
96213,APO,AP
96214,APO,AP
96218,APO,AP
96224,APO,AP
96251,APO,AP
96257,APO,AP
96258,APO,AP
96260,APO,AP
96262,APO,AP
96264,APO,AP
96266,APO,AP
96267,APO,AP
96269,FPO,AP
96271,APO,AP
96273,APO,AP
96275,APO,AP
96276,APO,AP
96278,APO,AP
96283,APO,AP
96284,APO,AP
96297,APO,AP
96301,APO,AP
96303,DPO,AP
96306,FPO,AP
96309,FPO,AP
96310,FPO,AP
96311,FPO,AP
96319,APO,AP
96321,FPO,AP
96322,FPO,AP
96323,APO,AP
96326,APO,AP
96328,APO,AP
96330,APO,AP
96331,APO,AP
96336,APO,AP
96337,APO,AP
96338,APO,AP
96339,APO,AP
96343,APO,AP
96346,FPO,AP
96347,FPO,AP
96349,FPO,AP
96350,FPO,AP
96351,FPO,AP
96362,FPO,AP
96365,APO,AP
96367,APO,AP
96368,APO,AP
96370,FPO,AP
96371,FPO,AP
96372,FPO,AP
96373,FPO,AP
96374,FPO,AP
96375,FPO,AP
96376,APO,AP
96377,FPO,AP
96378,APO,AP
96379,FPO,AP
96380,FPO,AP
96382,FPO,AP
96384,FPO,AP
96385,FPO,AP
96386,APO,AP
96387,FPO,AP
96388,FPO,AP
96389,FPO,AP
96401,APO,AP
96501,APO,AP
96502,APO,AP
96504,DPO,AP
96505,DPO,AP
96507,DPO,AP
96510,FPO,AP
96511,FPO,AP
96515,DPO,AP
96516,FPO,AP
96517,FPO,AP
96520,DPO,AP
96521,DPO,AP
96522,FPO,AP
96530,DPO,AP
96531,FPO,AP
96532,DPO,AP
96534,FPO,AP
96535,DPO,AP
96537,FPO,AP
96538,APO,AP
96539,APO,AP
96540,FPO,AP
96541,APO,AP
96542,FPO,AP
96543,FPO,AP
96546,APO,AP
96548,APO,AP
96549,DPO,AP
96550,APO,AP
96551,DPO,AP
96552,APO,AP
96553,APO,AP
96554,DPO,AP
96555,APO,AP
96557,APO,AP
96562,DPO,AP
96577,APO,AP
96578,FPO,AP
96595,FPO,AP
96598,FPO,AP
96599,APO,AP
96601,FPO,AP
96602,FPO,AP
96603,FPO,AP
96604,FPO,AP
96605,FPO,AP
96606,FPO,AP
96607,FPO,AP
96608,FPO,AP
96609,FPO,AP
96610,FPO,AP
96611,FPO,AP
96612,FPO,AP
96613,FPO,AP
96615,FPO,AP
96616,FPO,AP
96617,FPO,AP
96619,FPO,AP
96620,FPO,AP
96621,FPO,AP
96622,FPO,AP
96624,FPO,AP
96628,FPO,AP
96629,FPO,AP
96631,FPO,AP
96632,FPO,AP
96633,APO,AP
96641,APO,AP
96642,APO,AP
96643,FPO,AP
96644,APO,AP
96645,APO,AP
96649,FPO,AP
96650,FPO,AP
96657,FPO,AP
96660,FPO,AP
96661,FPO,AP
96662,FPO,AP
96663,FPO,AP
96664,FPO,AP
96665,FPO,AP
96666,FPO,AP
96667,FPO,AP
96668,FPO,AP
96669,FPO,AP
96670,FPO,AP
96671,FPO,AP
96672,FPO,AP
96673,FPO,AP
96674,FPO,AP
96675,FPO,AP
96677,FPO,AP
96678,FPO,AP
96679,FPO,AP
96681,FPO,AP
96682,FPO,AP
96683,FPO,AP
96686,FPO,AP
96691,FPO,AP
96692,FPO,AP
96693,FPO,AP
96694,FPO,AP
96695,FPO,AP
96696,FPO,AP
96698,FPO,AP
96799,PAGO PAGO,AS
96910,HAGATNA,GU
96912,DEDEDO,GU
96913,BARRIGADA,GU
96915,SANTA RITA,GU
96916,MERIZO,GU
96917,INARAJAN,GU
96919,AGANA HEIGHTS,GU
96921,BARRIGADA,GU
96923,MANGILAO,GU
96928,AGAT,GU
96929,YIGO,GU
96931,TAMUNING,GU
96932,HAGATNA,GU
96939,Ngerulmud,PW
96940,Koror,PW
96941,POHNPEI,FM
96942,CHUUK,FM
96943,YAP,FM
96944,KOSRAE,FM
96950,SAIPAN,MP
96951,ROTA,MP
96952,TINIAN,MP
96960,MAJURO,MH
96970,EBEYE,MH
